STARLINK-1978           
1 47576U 21009AE  24307.58827764  .00045114  00000+0  30223-2 0  9990
2 47576  53.0552  50.7461 0001387  82.2598 277.8549 15.06472955207518
STARLINK-1979           
1 47577U 21009AF  24307.56294966  .00005941  00000+0  41744-3 0  9996
2 47577  53.0554  65.8593 0001548 112.8679 247.2473 15.06398449206693
STARLINK-1980           
1 47578U 21009AG  24307.91667824  .00149965  00000+0  65059-2 0  9992
2 47578  53.0560  67.8205 0001191  59.0245 122.4840 15.21264443  5690
STARLINK-1981           
1 47579U 21009AH  24307.60580599  .00012064  00000+0  82765-3 0  9995
2 47579  53.0551  60.6699 0001464  96.3336 263.7820 15.06389314206763
STARLINK-1982           
1 47580U 21009AJ  24307.62699395  .00002364  00000+0  17756-3 0  9994
2 47580  53.0553  70.5713 0001376  90.8352 269.2795 15.06399152206621
STARLINK-1984           
1 47581U 21009AK  24307.91667824  .01235663  78627-3  25583-2 0  9990
2 47581  53.0386 348.1924 0012822  17.8323 196.8355 15.98579459208337
STARLINK-1986           
1 47582U 21009AL  24307.66017463  .00015997  00000+0  10910-2 0  9990
2 47582  53.0544  70.4227 0001572  79.5352 280.5814 15.06379199206632
STARLINK-1987           
1 47583U 21009AM  24307.91667824  .00380342  00000+0  15378-1 0  9992
2 47583  53.0554  68.4823 0001236  64.1935  54.9583 15.22534336207290
STARLINK-1989           
1 47585U 21009AP  24307.66385543  .00007096  00000+0  49472-3 0  9997
2 47585  53.0540  70.4028 0001951  97.9054 262.2157 15.06405222206638
STARLINK-1990           
1 47586U 21009AQ  24307.71360576 -.00010838  00000+0 -71012-3 0  9998
2 47586  53.0531  90.1808 0001316  98.9777 261.1361 15.06383531206365
STARLINK-1991           
1 47587U 21009AR  24307.64265042  .00014288  00000+0  97589-3 0  9991
2 47587  53.0543  60.4993 0001426  97.5534 262.5617 15.06410168206773
STARLINK-1993           
1 47588U 21009AS  24307.63435861  .00008613  00000+0  59631-3 0  9990
2 47588  53.0546  70.5379 0001299  94.8385 265.2752 15.06407085206638
STARLINK-1994           
1 47589U 21009AT  24307.65280000  .00006492  00000+0  45438-3 0  9999
2 47589  53.0551  70.4569 0001651  97.0264 263.0913 15.06393520206631
STARLINK-1995           
1 47590U 21009AU  24307.70992147  .00012206  00000+0  83637-3 0  9992
2 47590  53.0530  90.1965 0001230  92.2962 267.8168 15.06422361206364
STARLINK-1996           
1 47591U 21009AV  24307.64911187 -.00000045  00000+0  15846-4 0  9998
2 47591  53.0551  70.4754 0001424  98.4694 261.6457 15.06385436206634
STARLINK-1997           
1 47592U 21009AW  24307.68045013  .00018992  00000+0  12912-2 0  9997
2 47592  53.0529  90.3310 0001260  77.6161 282.4969 15.06379200206355
STARLINK-1998           
1 47593U 21009AX  24307.91667824  .01196672  00000+0  52432-1 0  9997
2 47593  53.0534  89.0104 0001339  68.4203  68.2946 15.18582987207009
STARLINK-1999           
1 47594U 21009AY  24307.91667824  .00753430  00000+0  72000-2 0  9992
2 47594  53.0487  83.1273 0001243  60.9676  13.0979 15.63785790207083
STARLINK-2000           
1 47595U 21009AZ  24307.91667824  .00678998  00000+0  31882-1 0  9990
2 47595  53.0522  88.9826 0001400  63.1833 349.5005 15.16824853  5845
STARLINK-2001           
1 47596U 21009BA  24307.67307501  .00019163  00000+0  13009-2 0  9992
2 47596  53.0531  90.3665 0001302  75.4357 284.6776 15.06428473206352
STARLINK-2002           
1 47597U 21009BB  24307.66568547  .00011166  00000+0  76685-3 0  9996
2 47597  53.0525  90.3988 0001162  93.6396 266.4725 15.06421379206353
STARLINK-2003           
1 47598U 21009BC  24307.60948689  .00031759  00000+0  21387-2 0  9998
2 47598  53.0547  60.6500 0001214  71.1710 288.9411 15.06446808206778
STARLINK-2005           
1 47600U 21009BE  24307.91667824  .00093664  00000+0  40276-2 0  9996
2 47600  53.0497  47.5725 0001032  57.5175 226.2137 15.21874978  5856
STARLINK-2006           
1 47601U 21009BF  24307.60265929  .00134524  00000+0  87053-2 0  9998
2 47601  53.0545  50.6748 0001940 133.6733 226.4417 15.07133073206905
STARLINK-2007           
1 47602U 21009BG  24307.61529054  .00097909  00000+0  35647-2 0  9999
2 47602  53.0551  50.7497 0005527 274.6937  85.3430 15.27414458206900
STARLINK-2008           
1 47603U 21009BH  24307.91667824  .00522784  00000+0  23655-1 0  9990
2 47603  53.0516  88.8238 0001245  61.7349 252.2005 15.18349716  5647
STARLINK-2021           
1 47604U 21009BJ  24307.63160726  .00013650  00000+0  93330-3 0  9995
2 47604  53.0542  60.5499 0001420  90.4528 269.6624 15.06406582206774
STARLINK-2024           
1 47606U 21009BL  24307.56894634  .00002859  00000+0  21074-3 0  9996
2 47606  53.0530  60.8327 0001433  75.4698 284.6450 15.06402852206760
STARLINK-2025           
1 47607U 21009BM  24307.57765156  .00009475  00000+0  65415-3 0  9992
2 47607  53.0537  55.5896 0001483 100.8470 259.2686 15.06398619206838
STARLINK-1528           
1 47620U 21012A   24307.76244413  .00022026  00000+0  14917-2 0  9997
2 47620  53.0527 119.9632 0001450  84.3411 275.7743 15.06432109205839
STARLINK-1609           
1 47621U 21012B   24307.75507901  .00025481  00000+0  17212-2 0  9990
2 47621  53.0525 119.9988 0001368  78.3542 281.7600 15.06446783205841
STARLINK-1645           
1 47622U 21012C   24307.81679284  .00001446  00000+0  11593-3 0  9994
2 47622  53.0515 119.7127 0001408  93.9144 266.2006 15.06398522205845
STARLINK-1655           
1 47623U 21012D   24307.63022588  .00005847  00000+0  41098-3 0  9996
2 47623  53.0554  55.5573 0001438  77.0817 283.0333 15.06411328206733
STARLINK-1669           
1 47624U 21012E   24307.69058910  .00007396  00000+0  51555-3 0  9991
2 47624  53.0525 100.2874 0001447  89.1433 270.9722 15.06350734206125
STARLINK-1704           
1 47625U 21012F   24307.82416657  .00011169  00000+0  76731-3 0  9999
2 47625  53.0522 119.6797 0001469  93.0678 267.0479 15.06409305205843
STARLINK-1761           
1 47626U 21012G   24307.81035618  .00022152  00000+0  15001-2 0  9999
2 47626  53.0518 119.7505 0001421  82.5429 277.5722 15.06430867205846
STARLINK-1972           
1 47627U 21012H   24307.48924482 -.00005309  00000+0 -33809-3 0  9993
2 47627  53.0552  26.1906 0001292  97.3351 262.7784 15.06368795207100
STARLINK-1973           
1 47628U 21012J   24307.77993217  .00002075  00000+0  15815-3 0  9990
2 47628  53.0541 119.8796 0001393  94.9613 265.1535 15.06402161205848
STARLINK-1974           
1 47629U 21012K   24307.43071127  .00002553  00000+0  19013-3 0  9996
2 47629  53.0557   1.4489 0001638 125.6297 234.4844 15.06417254207453
STARLINK-1983           
1 47630U 21012L   24307.72007053  .00007183  00000+0  50032-3 0  9997
2 47630  53.0537 100.2423 0001304  85.3350 274.7788 15.06421548206095
STARLINK-1992           
1 47632U 21012N   24307.91216317  .00020836  00000+0  14125-2 0  9997
2 47632  53.0566  24.2913 0001473  67.4516 292.6629 15.06428412207170
STARLINK-2009           
1 47633U 21012P   24307.91667824  .00404366  00000+0  19018-1 0  9990
2 47633  53.0518 118.3998 0001197  63.9314 324.0102 15.17196869  5842
STARLINK-2010           
1 47634U 21012Q   24307.83985263  .00002968  00000+0  21803-3 0  9991
2 47634  53.0527 119.6173 0001380  91.5800 268.5347 15.06403396205336
STARLINK-2012           
1 47635U 21012R   24307.93153800  .00002455  00000+0  18357-3 0  9998
2 47635  53.0541  24.2042 0001219  78.8374 281.2752 15.06410446207196
STARLINK-2013           
1 47636U 21012S   24307.91667824  .00557663  00000+0  19450-1 0  9992
2 47636  53.0532  97.7430 0001176  58.8712 137.9866 15.27051976  5695
STARLINK-2014           
1 47637U 21012T   24307.91667824  .00753867  00000+0  31412-1 0  9999
2 47637  53.0498  98.7444 0001264  61.1202 136.3475 15.20713463  5858
STARLINK-2015           
1 47638U 21012U   24307.52977412  .00005810  00000+0  40857-3 0  9997
2 47638  53.0568  26.0122 0001641  98.3401 261.7774 15.06402069207115
STARLINK-2016           
1 47639U 21012V   24307.70900203  .00011593  00000+0  79556-3 0  9995
2 47639  53.0534 100.2032 0001451  89.1149 271.0006 15.06414199206095
STARLINK-2018           
1 47640U 21012W   24307.76981550  .00002303  00000+0  17347-3 0  9996
2 47640  53.0529 119.9319 0001443  84.2722 275.8432 15.06401760205847
STARLINK-2019           
1 47641U 21012X   24307.91310470  .00007638  00000+0  53087-3 0  9998
2 47641  53.0554  24.2890 0001427  90.1898 269.9255 15.06415217207177
STARLINK-2020           
1 47642U 21012Y   24307.77580802  .00022179  00000+0  15016-2 0  9997
2 47642  53.0527 114.9048 0001250  85.5221 274.5911 15.06439316205908
STARLINK-2022           
1 47643U 21012Z   24307.79009754  .00018849  00000+0  12801-2 0  9990
2 47643  53.0535  99.8386 0001261  80.9049 279.2082 15.06422942206126
STARLINK-2027           
1 47645U 21012AB  24307.72561935  .00176448  00000+0  50128-2 0  9993
2 47645  53.0562  87.2304 0000792  48.8073 311.2997 15.35013386206275
STARLINK-2028           
1 47646U 21012AC  24307.61180818  .00015139  00000+0  10323-2 0  9991
2 47646  53.0541  55.8806 0001374  64.6804 295.4327 15.06427388206208
STARLINK-2030           
1 47647U 21012AD  24307.81405335  .00009846  00000+0  67856-3 0  9990
2 47647  53.0526 119.7335 0001465  88.1046 272.0110 15.06422872205853
STARLINK-2031           
1 47648U 21012AE  24307.73849173  .00005946  00000+0  41771-3 0  9999
2 47648  53.0532 100.0729 0001362  97.5621 262.5523 15.06403407206126
STARLINK-2032           
1 47649U 21012AF  24307.74215995  .00011123  00000+0  76373-3 0  9990
2 47649  53.0531 100.0541 0000992  80.1349 279.9752 15.06435547206127
STARLINK-2033           
1 47650U 21012AG  24307.72742593 -.00002094  00000+0 -12171-3 0  9994
2 47650  53.0533 100.1197 0001403  84.8880 275.2269 15.06395066206109
STARLINK-2035           
1 47651U 21012AH  24307.76614090  .00011337  00000+0  77862-3 0  9995
2 47651  53.0524 119.9972 0001519  91.5350 268.5813 15.06406151205842
